{
  "generated_at": "2026-05-11T13:46:38+00:00",
  "source": "celestrak.org",
  "satellite_count": 9,
  "satellites": [
    {
      "id": "terra",
      "name": "TERRA",
      "platform": "EOS",
      "sensor": "MODIS",
      "swath_km": 2330,
      "color": "#39d0d8",
      "norad": 25994,
      "tle1": "1 25994U 99068A   26131.17279336  .00000232  00000+0  56171-4 0  9992",
      "tle2": "2 25994  97.9482 182.1815 0002264  22.8205  34.0948 14.61072867404209"
    },
    {
      "id": "aqua",
      "name": "AQUA",
      "platform": "EOS",
      "sensor": "MODIS",
      "swath_km": 2330,
      "color": "#2bb673",
      "norad": 27424,
      "tle1": "1 27424U 02022A   26131.17379185  .00000520  00000+0  11330-3 0  9996",
      "tle2": "2 27424  98.4257  99.7243 0002111  79.4252  10.7491 14.62099798277861"
    },
    {
      "id": "snpp",
      "name": "SUOMI NPP",
      "platform": "JPSS",
      "sensor": "VIIRS",
      "swath_km": 3000,
      "color": "#ff8c42",
      "norad": 37849,
      "tle1": "1 37849U 11061A   26131.19427848  .00000036  00000+0  38100-4 0  9990",
      "tle2": "2 37849  98.7939  72.3270 0002840  77.6528 282.4966 14.19509318753191"
    },
    {
      "id": "noaa20",
      "name": "NOAA 20",
      "platform": "JPSS",
      "sensor": "VIIRS",
      "swath_km": 3000,
      "color": "#ffaa00",
      "norad": 43013,
      "tle1": "1 43013U 17073A   26131.13694839  .00000046  00000+0  42618-4 0  9999",
      "tle2": "2 43013  98.7758  70.9321 0001792  53.0494 307.0846 14.19550705439217"
    },
    {
      "id": "noaa21",
      "name": "NOAA 21",
      "platform": "JPSS",
      "sensor": "VIIRS",
      "swath_km": 3000,
      "color": "#ff5a3a",
      "norad": 54234,
      "tle1": "1 54234U 22150A   26131.17112105  .00000014  00000+0  27527-4 0  9990",
      "tle2": "2 54234  98.7046  70.5851 0000998 344.9325  15.1822 14.19558606181291"
    },
    {
      "id": "sentinel2a",
      "name": "SENTINEL-2A",
      "platform": "Copernicus",
      "sensor": "MSI",
      "swath_km": 290,
      "color": "#b388ff",
      "norad": 40697,
      "tle1": "1 40697U 15028A   26131.22165721 -.00000096  00000+0 -19982-4 0  9990",
      "tle2": "2 40697  98.5682 206.5958 0001227  84.0279 276.1043 14.30812536568446"
    },
    {
      "id": "sentinel2b",
      "name": "SENTINEL-2B",
      "platform": "Copernicus",
      "sensor": "MSI",
      "swath_km": 290,
      "color": "#9d6dff",
      "norad": 42063,
      "tle1": "1 42063U 17013A   26130.51516828  .00000319  00000+0  13825-3 0  9999",
      "tle2": "2 42063  98.5689 205.8191 0001259  89.4806 270.6521 14.30819077479250"
    },
    {
      "id": "sentinel3a",
      "name": "SENTINEL-3A",
      "platform": "Copernicus",
      "sensor": "OLCI",
      "swath_km": 1270,
      "color": "#7a4fff",
      "norad": 41335,
      "tle1": "1 41335U 16011A   26131.18799132  .00000055  00000+0  40834-4 0  9990",
      "tle2": "2 41335  98.6260 199.0994 0001059 105.2290 254.9008 14.26735576532783"
    },
    {
      "id": "sentinel3b",
      "name": "SENTINEL-3B",
      "platform": "Copernicus",
      "sensor": "OLCI",
      "swath_km": 1270,
      "color": "#5e3bff",
      "norad": 43437,
      "tle1": "1 43437U 18039A   26131.16113853  .00000055  00000+0  40727-4 0  9996",
      "tle2": "2 43437  98.6260 199.2211 0001481  81.6914 278.4435 14.26738136418841"
    }
  ]
}